{"type":"FeatureCollection","features":[{"type":"Feature","properties":{"name":"Norte"},"geometry":{"type":"Polygon","coordinates":[[[-61.48,-9.63],[-61.53,-10.98],[-60.46,-10.99],[-59.79,-12.35],[-60.36,-13.3],[-60.71,-13.69],[-61.88,-13.5],[-63.09,-12.66],[-64.42,-12.44],[-65.31,-11.49],[-65.43,-10.48],[-65.29,-9.87],[-66.62,-9.89],[-67.19,-10.34],[-68.03,-10.66],[-68.72,-11.14],[-69.42,-10.93],[-70.62,-11.0],[-70.62,-9.82],[-72.18,-10.0],[-72.34,-9.51],[-72.94,-9.06],[-73.94,-7.6],[-73.8,-7.11],[-73.11,-6.41],[-73.24,-6.03],[-72.89,-5.17],[-71.89,-4.52],[-69.94,-4.22],[-69.4,-1.14],[-69.61,-0.51],[-70.06,-0.19],[-70.04,0.56],[-69.21,0.61],[-69.32,1.1],[-69.84,1.09],[-69.84,1.72],[-68.16,1.73],[-67.39,2.24],[-66.86,1.23],[-66.32,0.76],[-65.74,1.0],[-65.16,0.95],[-64.09,1.62],[-64.06,1.93],[-63.37,2.21],[-64.23,3.13],[-64.04,3.93],[-62.77,4.01],[-61.56,4.25],[-61.0,4.52],[-60.21,5.27],[-59.53,3.97],[-59.91,3.15],[-59.99,2.69],[-59.75,1.85],[-58.89,1.23],[-58.32,1.57],[-57.53,1.71],[-57.1,2.02],[-56.0,1.83],[-56.05,2.23],[-55.0,2.59],[-54.87,2.43],[-54.19,2.18],[-52.66,2.38],[-51.55,4.42],[-51.08,3.89],[-51.09,3.39],[-50.67,2.15],[-49.92,1.7],[-50.09,0.7],[-49.48,0.08],[-48.0,-0.66],[-46.95,-0.73],[-46.1,-1.2],[-46.29,-2.16],[-46.65,-3.0],[-47.58,-4.52],[-48.75,-5.35],[-48.52,-5.19],[-47.55,-5.47],[-47.38,-6.27],[-47.5,-7.48],[-47.04,-8.05],[-47.03,-8.99],[-46.57,-9.48],[-46.33,-10.18],[-45.95,-10.26],[-45.72,-10.15],[-46.62,-11.3],[-46.31,-11.54],[-46.37,-12.29],[-46.11,-12.92],[-47.43,-13.27],[-48.15,-13.31],[-48.87,-12.8],[-49.37,-13.27],[-50.51,-12.86],[-50.71,-12.61],[-50.6,-10.66],[-50.22,-9.84],[-56.67,-9.37],[-57.59,-8.76],[-57.64,-8.21],[-58.14,-7.36],[-58.5,-8.8],[-61.58,-8.8],[-61.48,-9.63]]]}},{"type":"Feature","properties":{"name":"Nordeste"},"geometry":{"type":"Polygon","coordinates":[[[-39.06,-14.64],[-38.92,-15.71],[-39.27,-17.87],[-39.67,-18.35],[-40.22,-17.98],[-40.6,-17.39],[-40.55,-16.98],[-39.86,-16.11],[-40.7,-15.67],[-41.33,-15.74],[-41.8,-15.1],[-42.26,-15.12],[-42.95,-14.71],[-43.51,-14.8],[-43.78,-14.34],[-44.56,-14.34],[-45.75,-15.12],[-46.04,-14.87],[-46.24,-14.11],[-46.11,-12.92],[-46.37,-12.29],[-46.31,-11.54],[-46.62,-11.3],[-45.72,-10.15],[-45.95,-10.26],[-46.33,-10.18],[-46.57,-9.48],[-47.03,-8.99],[-47.04,-8.05],[-47.5,-7.48],[-47.38,-6.27],[-47.55,-5.47],[-48.52,-5.19],[-48.75,-5.35],[-47.58,-4.52],[-46.65,-3.0],[-46.29,-2.16],[-46.1,-1.2],[-45.74,-1.24],[-45.73,-1.34],[-45.55,-1.32],[-45.48,-1.53],[-45.34,-1.35],[-45.37,-1.69],[-45.09,-1.37],[-45.09,-1.5],[-45.07,-1.45],[-44.7,-1.59],[-44.78,-1.68],[-44.73,-1.8],[-44.65,-1.76],[-44.57,-1.85],[-44.41,-2.23],[-43.92,-2.51],[-43.61,-2.22],[-42.74,-2.56],[-41.81,-2.74],[-41.32,-2.92],[-40.0,-2.84],[-38.47,-3.71],[-37.25,-4.83],[-36.69,-5.09],[-35.49,-5.16],[-34.97,-6.49],[-34.83,-7.55],[-35.15,-8.91],[-36.39,-10.5],[-36.94,-10.83],[-38.0,-12.58],[-38.93,-13.22],[-39.06,-14.64]]]}},{"type":"Feature","properties":{"name":"Sudeste"},"geometry":{"type":"Polygon","coordinates":[[[-47.0,-24.33],[-48.1,-25.31],[-48.62,-24.67],[-49.21,-24.7],[-49.59,-23.37],[-49.96,-22.93],[-50.79,-22.9],[-52.13,-22.52],[-53.1,-22.62],[-52.49,-22.21],[-51.35,-20.36],[-51.0,-20.08],[-50.94,-19.47],[-50.31,-18.7],[-49.42,-18.64],[-48.94,-18.31],[-47.96,-18.5],[-47.28,-18.06],[-47.53,-17.39],[-47.13,-17.01],[-47.44,-16.54],[-47.31,-16.04],[-46.78,-15.02],[-46.04,-14.87],[-45.75,-15.12],[-44.56,-14.34],[-43.78,-14.34],[-43.51,-14.8],[-42.95,-14.71],[-42.26,-15.12],[-41.8,-15.1],[-41.33,-15.74],[-40.7,-15.67],[-39.86,-16.11],[-40.55,-16.98],[-40.6,-17.39],[-40.22,-17.98],[-39.67,-18.35],[-39.69,-19.31],[-40.47,-20.65],[-40.72,-20.84],[-40.96,-21.3],[-40.97,-21.97],[-41.69,-22.3],[-41.89,-22.78],[-42.08,-22.96],[-43.24,-22.86],[-43.17,-22.92],[-43.57,-23.06],[-44.42,-22.95],[-44.51,-23.29],[-46.13,-23.86],[-47.0,-24.33]]]}},{"type":"Feature","properties":{"name":"Centro-Oeste"},"geometry":{"type":"Polygon","coordinates":[[[-51.35,-20.36],[-52.49,-22.21],[-53.61,-22.95],[-54.29,-24.07],[-54.67,-23.81],[-55.34,-23.99],[-55.62,-22.63],[-55.85,-22.28],[-57.32,-22.24],[-58.01,-22.05],[-57.85,-21.32],[-58.13,-19.76],[-57.56,-18.24],[-57.75,-17.56],[-58.39,-17.18],[-58.43,-16.32],[-60.17,-16.27],[-60.27,-14.62],[-60.71,-13.69],[-60.36,-13.3],[-59.79,-12.35],[-60.46,-10.99],[-61.53,-10.98],[-61.48,-9.63],[-61.58,-8.8],[-58.5,-8.8],[-58.14,-7.36],[-57.64,-8.21],[-57.59,-8.76],[-56.67,-9.37],[-50.22,-9.84],[-50.6,-10.66],[-50.71,-12.61],[-50.51,-12.86],[-49.37,-13.27],[-48.87,-12.8],[-48.15,-13.31],[-47.43,-13.27],[-46.11,-12.92],[-46.24,-14.11],[-46.04,-14.87],[-46.78,-15.02],[-47.31,-16.04],[-47.44,-16.54],[-47.13,-17.01],[-47.53,-17.39],[-47.28,-18.06],[-47.96,-18.5],[-48.94,-18.31],[-49.42,-18.64],[-50.31,-18.7],[-50.94,-19.47],[-51.0,-20.08],[-51.35,-20.36]]]}},{"type":"Feature","properties":{"name":"Sul"},"geometry":{"type":"Polygon","coordinates":[[[-51.81,-31.82],[-50.75,-30.82],[-51.1,-30.25],[-51.16,-30.26],[-51.14,-30.47],[-51.3,-30.75],[-52.04,-31.57],[-52.1,-32.16],[-53.0,-32.78],[-53.64,-32.38],[-54.58,-31.46],[-56.02,-30.79],[-56.82,-30.1],[-57.57,-30.26],[-55.75,-28.23],[-53.83,-27.17],[-53.64,-26.25],[-53.86,-25.66],[-54.59,-25.4],[-54.29,-24.07],[-53.61,-22.95],[-53.1,-22.62],[-52.13,-22.52],[-50.79,-22.9],[-49.96,-22.93],[-49.59,-23.37],[-49.21,-24.7],[-48.62,-24.67],[-48.1,-25.31],[-48.59,-25.98],[-48.69,-26.67],[-48.58,-27.88],[-48.81,-28.61],[-49.71,-29.33],[-50.77,-31.11],[-51.81,-31.82]]]}}]}